{"spkid": "20410777", "covariance": {"elements": [{"name": "e", "sigma": 9.97124634792322e-09, "value": ".4929690811916024", "title": "eccentricity", "units": null, "label": "e"}, {"label": "q", "title": "perihelion distance", "value": ".590066762483514", "units": "au", "sigma": 1.16235002689165e-08, "name": "q"}, {"label": "tp", "name": "tp", "sigma": 4.99302766000718e-07, "units": "TDB", "title": "time of perihelion passage", "value": "2457267.346088941401"}, {"title": "longitude of the ascending node", "value": "9.406525944678584", "units": "deg", "sigma": 1.06630646319509e-05, "name": "om", "label": "node"}, {"name": "w", "sigma": 1.05874781620067e-05, "value": "281.4337092831991", "title": "argument of perihelion", "units": "deg", "label": "peri"}, {"label": "i", "sigma": 2.14845919278499e-06, "name": "i", "title": "inclination", "value": "3.12856440768567", "units": "deg"}], "data": [["9.942575373097224E-17", "-1.154807122576549E-16", "4.676699247009228E-15", "-4.670526584848031E-14", "4.058167305442208E-14", "6.165262457261428E-15", "-2.890664794625989E-23"], ["-1.154807122576549E-16", "1.351057585015012E-16", "-5.397723268752095E-15", "5.451238019543663E-14", "-4.724824456636808E-14", "-7.181341471300974E-15", "4.318547695375332E-23"], ["4.676699247009228E-15", "-5.397723268752095E-15", "2.493032521359674E-13", "-1.420791350128059E-12", "1.19248219321776E-12", "4.858480686262059E-13", "-9.782966906919111E-22"], ["-4.670526584848031E-14", "5.451238019543663E-14", "-1.420791350128059E-12", "1.137009473451616E-10", "-1.124443648348636E-10", "-3.996763446483775E-13", "6.52707447495639E-21"], ["4.058167305442208E-14", "-4.724824456636808E-14", "1.19248219321776E-12", "-1.124443648348636E-10", "1.120946938309688E-10", "1.369557636195182E-12", "-2.051355846325515E-21"], ["6.165262457261428E-15", "-7.181341471300974E-15", "4.858480686262059E-13", "-3.996763446483775E-13", "1.369557636195182E-12", "4.615876903062336E-12", "8.118250829495117E-22"], ["-2.890664794625989E-23", "4.318547695375332E-23", "-9.782966906919111E-22", "6.52707447495639E-21", "-2.051355846325515E-21", "8.118250829495117E-22", "1.073619367319947E-28"]], "labels": ["e", "q", "tp", "node", "peri", "i", "A2"], "epoch": "2457468.5"}, "elements": [{"title": "eccentricity", "value": ".4930214865159493", "units": null, "sigma": "9.8566E-9", "name": "e", "label": "e"}, {"label": "a", "name": "a", "sigma": "7.2117E-9", "value": "1.16407105145417", "title": "semi-major axis", "units": "au"}, {"value": ".590159011256051", "title": "perihelion distance", "units": "au", "name": "q", "sigma": "1.2627E-8", "label": "q"}, {"sigma": "2.1503E-6", "name": "i", "title": "inclination; angle with respect to x-y ecliptic plane", "value": "3.12489947962882", "units": "deg", "label": "i"}, {"label": "node", "value": "9.153118203448289", "title": "longitude of the ascending node", "units": "deg", "name": "om", "sigma": "1.0651E-5"}, {"units": "deg", "value": "281.6869942385883", "title": "argument of perihelion", "sigma": "1.0571E-5", "name": "w", "label": "peri"}, {"units": "deg", "title": "mean anomaly", "value": "207.3474591534187", "sigma": "1.7494E-5", "name": "ma", "label": "M"}, {"label": "tp", "title": "time of perihelion passage", "value": "2461395.022210992735", "units": "TDB", "name": "tp", "sigma": "2.4094E-5"}, {"label": "period", "name": "per", "sigma": "4.263E-6", "title": "sidereal orbital period", "value": "458.7411095093672", "units": "d"}, {"units": "deg/d", "title": "mean motion", "value": ".7847563528479651", "name": "n", "sigma": "7.2927E-9", "label": "n"}, {"label": "Q", "sigma": "1.0767E-8", "name": "ad", "title": "aphelion distance", "value": "1.737983091652289", "units": "au"}], "epoch": "2461200.5"}